{"fetched_at":"2026-07-16T06:42:36.857Z","source":"https://celestrak.org/NORAD/elements/gp.php?GROUP=qianfan&FORMAT=JSON","constellation":"qianfan","records":[{"OBJECT_NAME":"QIANFAN-177","OBJECT_ID":"2026-124N","EPOCH":"2026-07-15T16:54:24.913728","CLASSIFICATION_TYPE":"U","MEAN_MOTION":13.93972929,"ECCENTRICITY":0.00116473,"INCLINATION":88.9983,"RA_OF_ASC_NODE":358.8087,"ARG_OF_PERICENTER":58.3779,"MEAN_ANOMALY":301.8532,"EPHEMERIS_TYPE":0,"NORAD_CAT_ID":69394,"ELEMENT_SET_NO":999,"REV_AT_EPOCH":585,"BSTAR":-1.6868868,"MEAN_MOTION_DOT":-0.02070747,"MEAN_MOTION_DDOT":0},{"OBJECT_NAME":"QIANFAN-178","OBJECT_ID":"2026-124P","EPOCH":"2026-07-15T18:28:26.570208","CLASSIFICATION_TYPE":"U","MEAN_MOTION":13.97553124,"ECCENTRICITY":0.00111261,"INCLINATION":88.998,"RA_OF_ASC_NODE":358.8007,"ARG_OF_PERICENTER":74.4305,"MEAN_ANOMALY":285.81,"EPHEMERIS_TYPE":0,"NORAD_CAT_ID":69395,"ELEMENT_SET_NO":999,"REV_AT_EPOCH":586,"BSTAR":-1.5713121,"MEAN_MOTION_DOT":-0.02054526,"MEAN_MOTION_DDOT":0},{"OBJECT_NAME":"QIANFAN-179","OBJECT_ID":"2026-124Q","EPOCH":"2026-07-15T18:06:41.258880","CLASSIFICATION_TYPE":"U","MEAN_MOTION":13.96040188,"ECCENTRICITY":0.00119797,"INCLINATION":88.9989,"RA_OF_ASC_NODE":358.7997,"ARG_OF_PERICENTER":81.5262,"MEAN_ANOMALY":278.7272,"EPHEMERIS_TYPE":0,"NORAD_CAT_ID":69396,"ELEMENT_SET_NO":999,"REV_AT_EPOCH":586,"BSTAR":-1.5902201,"MEAN_MOTION_DOT":-0.02026992,"MEAN_MOTION_DDOT":0},{"OBJECT_NAME":"QIANFAN-180","OBJECT_ID":"2026-124R","EPOCH":"2026-07-15T18:11:40.942464","CLASSIFICATION_TYPE":"U","MEAN_MOTION":13.9448839,"ECCENTRICITY":0.00116995,"INCLINATION":88.9991,"RA_OF_ASC_NODE":358.7993,"ARG_OF_PERICENTER":80.0583,"MEAN_ANOMALY":280.1913,"EPHEMERIS_TYPE":0,"NORAD_CAT_ID":69397,"ELEMENT_SET_NO":999,"REV_AT_EPOCH":586,"BSTAR":-1.6593547,"MEAN_MOTION_DOT":-0.0205637,"MEAN_MOTION_DDOT":0},{"OBJECT_NAME":"QIANFAN-181","OBJECT_ID":"2026-124S","EPOCH":"2026-07-15T18:59:55.860000","CLASSIFICATION_TYPE":"U","MEAN_MOTION":13.84994755,"ECCENTRICITY":0.00065371,"INCLINATION":88.9997,"RA_OF_ASC_NODE":358.8415,"ARG_OF_PERICENTER":66.666,"MEAN_ANOMALY":293.5198,"EPHEMERIS_TYPE":0,"NORAD_CAT_ID":69398,"ELEMENT_SET_NO":999,"REV_AT_EPOCH":584,"BSTAR":-1.9032447,"MEAN_MOTION_DOT":-0.0200603,"MEAN_MOTION_DDOT":0},{"OBJECT_NAME":"QIANFAN-182","OBJECT_ID":"2026-124T","EPOCH":"2026-07-15T19:20:15.186912","CLASSIFICATION_TYPE":"U","MEAN_MOTION":13.90932617,"ECCENTRICITY":0.0008529,"INCLINATION":88.999,"RA_OF_ASC_NODE":358.8268,"ARG_OF_PERICENTER":46.0072,"MEAN_ANOMALY":314.1803,"EPHEMERIS_TYPE":0,"NORAD_CAT_ID":69399,"ELEMENT_SET_NO":999,"REV_AT_EPOCH":584,"BSTAR":-1.4331009,"MEAN_MOTION_DOT":-0.01674464,"MEAN_MOTION_DDOT":0},{"OBJECT_NAME":"QIANFAN-183","OBJECT_ID":"2026-125A","EPOCH":"2026-07-15T14:49:38.701056","CLASSIFICATION_TYPE":"U","MEAN_MOTION":13.94505924,"ECCENTRICITY":0.00221865,"INCLINATION":88.9934,"RA_OF_ASC_NODE":277.2555,"ARG_OF_PERICENTER":85.8548,"MEAN_ANOMALY":274.5163,"EPHEMERIS_TYPE":0,"NORAD_CAT_ID":69401,"ELEMENT_SET_NO":999,"REV_AT_EPOCH":571,"BSTAR":-1.6458841,"MEAN_MOTION_DOT":-0.02044197,"MEAN_MOTION_DDOT":0},{"OBJECT_NAME":"QIANFAN-184","OBJECT_ID":"2026-125B","EPOCH":"2026-07-15T14:36:01.160064","CLASSIFICATION_TYPE":"U","MEAN_MOTION":13.91873722,"ECCENTRICITY":0.00178416,"INCLINATION":88.9944,"RA_OF_ASC_NODE":277.2543,"ARG_OF_PERICENTER":82.6787,"MEAN_ANOMALY":277.6415,"EPHEMERIS_TYPE":0,"NORAD_CAT_ID":69402,"ELEMENT_SET_NO":999,"REV_AT_EPOCH":571,"BSTAR":-1.713817,"MEAN_MOTION_DOT":-0.02032816,"MEAN_MOTION_DDOT":0},{"OBJECT_NAME":"QIANFAN-185","OBJECT_ID":"2026-125C","EPOCH":"2026-07-15T23:00:46.809504","CLASSIFICATION_TYPE":"U","MEAN_MOTION":14.04121419,"ECCENTRICITY":0.00182225,"INCLINATION":88.9947,"RA_OF_ASC_NODE":277.2126,"ARG_OF_PERICENTER":80.0782,"MEAN_ANOMALY":280.2455,"EPHEMERIS_TYPE":0,"NORAD_CAT_ID":69403,"ELEMENT_SET_NO":999,"REV_AT_EPOCH":576,"BSTAR":0.000008039588,"MEAN_MOTION_DOT":2.7e-7,"MEAN_MOTION_DDOT":0},{"OBJECT_NAME":"QIANFAN-186","OBJECT_ID":"2026-125D","EPOCH":"2026-07-15T14:17:19.876416","CLASSIFICATION_TYPE":"U","MEAN_MOTION":13.92351702,"ECCENTRICITY":0.00196797,"INCLINATION":88.9943,"RA_OF_ASC_NODE":277.2522,"ARG_OF_PERICENTER":82.7778,"MEAN_ANOMALY":277.5633,"EPHEMERIS_TYPE":0,"NORAD_CAT_ID":69404,"ELEMENT_SET_NO":999,"REV_AT_EPOCH":571,"BSTAR":-1.7617804,"MEAN_MOTION_DOT":-0.02102479,"MEAN_MOTION_DDOT":0},{"OBJECT_NAME":"QIANFAN-187","OBJECT_ID":"2026-125E","EPOCH":"2026-07-15T13:43:12.097920","CLASSIFICATION_TYPE":"U","MEAN_MOTION":13.94471061,"ECCENTRICITY":0.00248096,"INCLINATION":88.9937,"RA_OF_ASC_NODE":277.2466,"ARG_OF_PERICENTER":84.4037,"MEAN_ANOMALY":275.9967,"EPHEMERIS_TYPE":0,"NORAD_CAT_ID":69405,"ELEMENT_SET_NO":999,"REV_AT_EPOCH":571,"BSTAR":-1.6916603,"MEAN_MOTION_DOT":-0.02096911,"MEAN_MOTION_DDOT":0},{"OBJECT_NAME":"QIANFAN-188","OBJECT_ID":"2026-125F","EPOCH":"2026-07-15T18:09:27.716256","CLASSIFICATION_TYPE":"U","MEAN_MOTION":13.94677323,"ECCENTRICITY":0.0023335,"INCLINATION":88.9939,"RA_OF_ASC_NODE":277.2193,"ARG_OF_PERICENTER":86.1576,"MEAN_ANOMALY":274.2267,"EPHEMERIS_TYPE":0,"NORAD_CAT_ID":69406,"ELEMENT_SET_NO":999,"REV_AT_EPOCH":574,"BSTAR":-1.5616333,"MEAN_MOTION_DOT":-0.01952168,"MEAN_MOTION_DDOT":0},{"OBJECT_NAME":"QIANFAN-189","OBJECT_ID":"2026-125G","EPOCH":"2026-07-15T15:06:41.558688","CLASSIFICATION_TYPE":"U","MEAN_MOTION":13.9500415,"ECCENTRICITY":0.00251981,"INCLINATION":88.9953,"RA_OF_ASC_NODE":277.241,"ARG_OF_PERICENTER":84.5972,"MEAN_ANOMALY":275.8077,"EPHEMERIS_TYPE":0,"NORAD_CAT_ID":69407,"ELEMENT_SET_NO":999,"REV_AT_EPOCH":571,"BSTAR":-1.6816504,"MEAN_MOTION_DOT":-0.0210364,"MEAN_MOTION_DDOT":0},{"OBJECT_NAME":"QIANFAN-190","OBJECT_ID":"2026-125H","EPOCH":"2026-07-15T18:25:29.309376","CLASSIFICATION_TYPE":"U","MEAN_MOTION":13.94725134,"ECCENTRICITY":0.00239484,"INCLINATION":88.9943,"RA_OF_ASC_NODE":277.2221,"ARG_OF_PERICENTER":82.0045,"MEAN_ANOMALY":278.3847,"EPHEMERIS_TYPE":0,"NORAD_CAT_ID":69408,"ELEMENT_SET_NO":999,"REV_AT_EPOCH":574,"BSTAR":-1.5927521,"MEAN_MOTION_DOT":-0.01990272,"MEAN_MOTION_DDOT":0},{"OBJECT_NAME":"QIANFAN-191","OBJECT_ID":"2026-125J","EPOCH":"2026-07-15T12:48:16.743168","CLASSIFICATION_TYPE":"U","MEAN_MOTION":13.95084108,"ECCENTRICITY":0.00230887,"INCLINATION":88.9944,"RA_OF_ASC_NODE":277.2423,"ARG_OF_PERICENTER":87.5498,"MEAN_ANOMALY":272.8321,"EPHEMERIS_TYPE":0,"NORAD_CAT_ID":69409,"ELEMENT_SET_NO":999,"REV_AT_EPOCH":571,"BSTAR":-1.6082098,"MEAN_MOTION_DOT":-0.02019758,"MEAN_MOTION_DDOT":0},{"OBJECT_NAME":"QIANFAN-192","OBJECT_ID":"2026-125K","EPOCH":"2026-07-15T14:13:17.274720","CLASSIFICATION_TYPE":"U","MEAN_MOTION":13.94511365,"ECCENTRICITY":0.00243797,"INCLINATION":88.9945,"RA_OF_ASC_NODE":277.2327,"ARG_OF_PERICENTER":77.9161,"MEAN_ANOMALY":282.4745,"EPHEMERIS_TYPE":0,"NORAD_CAT_ID":69410,"ELEMENT_SET_NO":999,"REV_AT_EPOCH":572,"BSTAR":-1.6440717,"MEAN_MOTION_DOT":-0.02043087,"MEAN_MOTION_DDOT":0}]}
