QIANFAN-177             
1 69394U 26124N   26196.70445502 -.02070747  00000+0 -16869+1 0  9995
2 69394  88.9983 358.8087 0011647  58.3779 301.8532 13.93972929  5859
QIANFAN-178             
1 69395U 26124P   26196.76975197 -.02054526  00000+0 -15713+1 0  9994
2 69395  88.9980 358.8007 0011126  74.4305 285.8100 13.97553124  5864
QIANFAN-179             
1 69396U 26124Q   26196.75464420 -.02026992  00000+0 -15902+1 0  9992
2 69396  88.9989 358.7997 0011979  81.5262 278.7272 13.96040188  5869
QIANFAN-180             
1 69397U 26124R   26196.75811276 -.02056370  00000+0 -16594+1 0  9999
2 69397  88.9991 358.7993 0011699  80.0583 280.1913 13.94488390  5866
QIANFAN-181             
1 69398U 26124S   26196.79161875 -.02006030  00000+0 -19032+1 0  9995
2 69398  88.9997 358.8415 0006537  66.6660 293.5198 13.84994755  5841
QIANFAN-182             
1 69399U 26124T   26196.80573133 -.01674464  00000+0 -14331+1 0  9990
2 69399  88.9990 358.8268 0008529  46.0072 314.1803 13.90932617  5842
QIANFAN-183             
1 69401U 26125A   26196.61780904 -.02044197  00000+0 -16459+1 0  9998
2 69401  88.9934 277.2555 0022186  85.8548 274.5163 13.94505924  5716
QIANFAN-184             
1 69402U 26125B   26196.60834676 -.02032816  00000+0 -17138+1 0  9994
2 69402  88.9944 277.2543 0017841  82.6787 277.6415 13.91873722  5712
QIANFAN-185             
1 69403U 26125C   26196.95887511  .00000027  00000+0  80396-5 0  9995
2 69403  88.9947 277.2126 0018222  80.0782 280.2455 14.04121419  5767
QIANFAN-186             
1 69404U 26125D   26196.59536894 -.02102479  00000+0 -17618+1 0  9991
2 69404  88.9943 277.2522 0019679  82.7778 277.5633 13.92351702  5713
QIANFAN-187             
1 69405U 26125E   26196.57166780 -.02096911  00000+0 -16917+1 0  9997
2 69405  88.9937 277.2466 0024809  84.4037 275.9967 13.94471061  5717
QIANFAN-188             
1 69406U 26125F   26196.75657079 -.01952168  00000+0 -15616+1 0  9993
2 69406  88.9939 277.2193 0023335  86.1576 274.2267 13.94677323  5744
QIANFAN-189             
1 69407U 26125G   26196.62964767 -.02103640  00000+0 -16817+1 0  9993
2 69407  88.9953 277.2410 0025198  84.5972 275.8077 13.95004150  5710
QIANFAN-190             
1 69408U 26125H   26196.76770034 -.01990272  00000+0 -15928+1 0  9997
2 69408  88.9943 277.2221 0023948  82.0045 278.3847 13.94725134  5742
QIANFAN-191             
1 69409U 26125J   26196.53352712 -.02019758  00000+0 -16082+1 0  9996
2 69409  88.9944 277.2423 0023088  87.5498 272.8321 13.95084108  5718
QIANFAN-192             
1 69410U 26125K   26196.59256105 -.02043087  00000+0 -16441+1 0  9994
2 69410  88.9945 277.2327 0024379  77.9161 282.4745 13.94511365  5725
